{"type":"FeatureCollection","bbox":[6.626621368537682,35.493691935511414,18.520381599098922,47.09178374646217],"features":[{"type":"Feature","properties":{"reg_name":"Piemonte","reg_istat_code_num":1,"reg_istat_code":"01"},"geometry":{"type":"Polygon","coordinates":[[[7.136,45.28],[7.109,45.328],[7.186,45.403],[7.1,45.456],[7.134,45.515],[7.144,45.478],[7.223,45.47],[7.269,45.515],[7.377,45.517],[7.489,45.583],[7.566,45.592],[7.609,45.563],[7.733,45.55],[7.828,45.597],[7.901,45.592],[7.897,45.613],[7.94,45.644],[7.905,45.685],[7.937,45.724],[7.863,45.792],[7.878,45.973],[7.909,45.997],[7.989,45.996],[8.035,46.043],[8.033,46.099],[8.15,46.141],[8.165,46.182],[8.08,46.261],[8.138,46.302],[8.203,46.304],[8.263,46.364],[8.312,46.377],[8.3,46.419],[8.447,46.463],[8.469,46.365],[8.428,46.298],[8.456,46.264],[8.443,46.25],[8.533,46.218],[8.612,46.122],[8.715,46.098],[8.729,46.029],[8.571,45.9],[8.595,45.834],[8.556,45.775],[8.594,45.73],[8.653,45.714],[8.641,45.677],[8.681,45.676],[8.688,45.637],[8.659,45.638],[8.703,45.6],[8.713,45.52],[8.787,45.486],[8.843,45.394],[8.719,45.378],[8.763,45.349],[8.691,45.293],[8.667,45.292],[8.629,45.35],[8.552,45.361],[8.526,45.343],[8.538,45.317],[8.498,45.292],[8.535,45.278],[8.543,45.253],[8.522,45.249],[8.556,45.241],[8.529,45.24],[8.548,45.204],[8.525,45.198],[8.578,45.208],[8.543,45.173],[8.611,45.124],[8.659,45.018],[8.71,45.038],[8.772,45.007],[8.824,45.047],[8.898,45.051],[8.911,44.995],[8.961,44.987],[9.0,44.909],[9.056,44.889],[9.07,44.865],[9.049,44.85],[9.073,44.817],[9.161,44.815],[9.172,44.772],[9.214,44.752],[9.205,44.599],[9.135,44.574],[9.076,44.624],[9.044,44.614],[9.015,44.666],[8.931,44.676],[8.883,44.639],[8.918,44.561],[8.827,44.562],[8.782,44.488],[8.714,44.581],[8.624,44.586],[8.576,44.509],[8.471,44.522],[8.449,44.497],[8.419,44.513],[8.36,44.465],[8.253,44.529],[8.197,44.478],[8.222,44.43],[8.203,44.405],[8.15,44.385],[8.145,44.346],[8.106,44.332],[8.102,44.301],[8.06,44.301],[8.091,44.275],[8.063,44.253],[8.081,44.24],[8.065,44.217],[8.097,44.179],[8.068,44.145],[8.012,44.156],[7.98,44.138],[8.012,44.121],[8.007,44.103],[7.884,44.105],[7.763,44.141],[7.724,44.124],[7.732,44.084],[7.759,44.084],[7.727,44.06],[7.666,44.131],[7.673,44.177],[7.636,44.177],[7.617,44.15],[7.428,44.13],[7.423,44.113],[7.356,44.117],[7.341,44.146],[7.279,44.141],[7.185,44.201],[7.007,44.236],[6.996,44.28],[6.887,44.362],[6.893,44.42],[6.948,44.43],[6.876,44.481],[6.855,44.532],[6.933,44.573],[6.967,44.619],[6.948,44.654],[6.963,44.678],[7.071,44.68],[7.073,44.696],[7.0,44.789],[7.024,44.823],[7.006,44.84],[6.932,44.863],[6.863,44.851],[6.751,44.906],[6.766,44.962],[6.738,44.991],[6.746,45.014],[6.674,45.02],[6.662,45.071],[6.627,45.103],[6.769,45.16],[6.848,45.127],[6.894,45.137],[6.894,45.169],[6.947,45.17],[6.966,45.208],[7.083,45.216],[7.137,45.256],[7.136,45.28]],[[8.048,45.108],[8.029,45.133],[7.98,45.124],[8.048,45.108]]]}},{"type":"Feature","properties":{"reg_name":"Valle d'Aosta/Vallée d'Aoste","reg_istat_code_num":2,"reg_istat_code":"02"},"geometry":{"type":"Polygon","coordinates":[[[7.735,45.924],[7.754,45.94],[7.864,45.916],[7.863,45.792],[7.937,45.724],[7.905,45.685],[7.94,45.644],[7.897,45.613],[7.901,45.592],[7.828,45.597],[7.733,45.55],[7.609,45.563],[7.566,45.592],[7.489,45.583],[7.377,45.517],[7.269,45.515],[7.223,45.47],[7.143,45.478],[7.138,45.516],[7.104,45.467],[7.048,45.472],[7.053,45.495],[7.0,45.505],[6.978,45.589],[7.001,45.64],[6.915,45.653],[6.903,45.68],[6.854,45.687],[6.809,45.725],[6.819,45.836],[6.941,45.847],[6.998,45.873],[7.033,45.921],[7.102,45.859],[7.156,45.879],[7.19,45.859],[7.293,45.921],[7.386,45.897],[7.571,45.988],[7.664,45.976],[7.735,45.924]]]}},{"type":"Feature","properties":{"reg_name":"Lombardia","reg_istat_code_num":3,"reg_istat_code":"03"},"geometry":{"type":"MultiPolygon","coordinates":[[[[8.58,45.752],[8.552,45.788],[8.595,45.834],[8.571,45.9],[8.726,46.018],[8.706,46.085],[8.743,46.122],[8.852,46.076],[8.786,45.989],[8.894,45.958],[8.946,45.867],[8.912,45.83],[8.95,45.843],[9.034,45.823],[9.089,45.901],[9.019,45.929],[8.989,45.971],[9.028,45.994],[9.009,46.037],[9.078,46.065],[9.072,46.12],[9.183,46.171],[9.221,46.23],[9.248,46.234],[9.3,46.327],[9.281,46.412],[9.247,46.436],[9.282,46.497],[9.365,46.508],[9.41,46.467],[9.46,46.507],[9.462,46.376],[9.549,46.302],[9.703,46.291],[9.737,46.351],[9.777,46.335],[9.953,46.379],[9.996,46.351],[9.981,46.324],[9.995,46.285],[10.055,46.263],[10.047,46.229],[10.123,46.224],[10.176,46.258],[10.108,46.351],[10.167,46.408],[10.041,46.444],[10.044,46.538],[10.101,46.583],[10.102,46.611],[10.24,46.635],[10.258,46.61],[10.244,46.578],[10.296,46.55],[10.419,46.551],[10.476,46.496],[10.552,46.491],[10.622,46.448],[10.63,46.403],[10.607,46.379],[10.516,46.346],[10.566,46.326],[10.58,46.299],[10.56,46.283],[10.586,46.245],[10.541,46.189],[10.565,46.167],[10.549,46.117],[10.481,46.056],[10.485,46.025],[10.453,45.99],[10.509,45.924],[10.49,45.885],[10.503,45.83],[10.544,45.818],[10.533,45.788],[10.641,45.802],[10.655,45.833],[10.7,45.842],[10.84,45.833],[10.628,45.602],[10.648,45.449],[10.624,45.444],[10.649,45.441],[10.644,45.418],[10.719,45.406],[10.687,45.342],[10.715,45.334],[10.706,45.316],[10.73,45.316],[10.737,45.287],[10.783,45.315],[10.847,45.257],[10.937,45.233],[10.935,45.214],[10.997,45.187],[10.995,45.15],[11.05,45.15],[11.028,45.127],[11.043,45.112],[11.098,45.095],[11.146,45.126],[11.203,45.112],[11.178,45.097],[11.175,45.06],[11.266,45.056],[11.274,45.018],[11.427,44.95],[11.302,44.962],[11.272,44.938],[11.152,44.933],[11.073,44.963],[10.89,44.912],[10.744,44.949],[10.727,44.992],[10.695,44.962],[10.687,44.987],[10.628,44.924],[10.52,44.913],[10.436,44.943],[10.406,44.984],[10.359,44.966],[10.211,45.034],[10.158,45.044],[10.106,45.022],[10.082,45.047],[10.05,45.041],[9.985,45.133],[9.918,45.1],[9.923,45.136],[9.881,45.127],[9.897,45.081],[9.838,45.096],[9.824,45.053],[9.758,45.113],[9.75,45.078],[9.715,45.058],[9.635,45.084],[9.629,45.132],[9.587,45.1],[9.549,45.133],[9.533,45.079],[9.499,45.104],[9.411,45.083],[9.322,44.944],[9.285,44.932],[9.277,44.896],[9.342,44.87],[9.363,44.822],[9.287,44.772],[9.333,44.735],[9.308,44.706],[9.325,44.69],[9.259,44.68],[9.235,44.716],[9.237,44.685],[9.2,44.686],[9.214,44.752],[9.172,44.772],[9.161,44.815],[9.073,44.817],[9.049,44.85],[9.07,44.865],[9.056,44.889],[9.0,44.909],[8.961,44.987],[8.911,44.995],[8.887,45.06],[8.796,45.036],[8.772,45.007],[8.71,45.038],[8.659,45.018],[8.611,45.124],[8.543,45.173],[8.578,45.208],[8.525,45.198],[8.548,45.204],[8.529,45.24],[8.556,45.241],[8.522,45.249],[8.543,45.253],[8.535,45.278],[8.498,45.292],[8.538,45.317],[8.526,45.343],[8.552,45.361],[8.629,45.35],[8.667,45.292],[8.691,45.293],[8.763,45.349],[8.719,45.378],[8.843,45.394],[8.787,45.486],[8.713,45.52],[8.703,45.6],[8.659,45.638],[8.688,45.637],[8.681,45.676],[8.641,45.677],[8.652,45.716],[8.58,45.752]],[[8.698,45.845],[8.659,45.821],[8.691,45.813],[8.717,45.834],[8.698,45.845]]],[[[8.974,45.984],[8.976,45.962],[8.958,45.965],[8.974,45.984]]]]}},{"type":"Feature","properties":{"reg_name":"Trentino-Alto Adige/Südtirol","reg_istat_code_num":4,"reg_istat_code":"04"},"geometry":{"type":"Polygon","coordinates":[[[12.014,46.551],[11.815,46.5],[11.813,46.478],[11.877,46.472],[11.889,46.443],[11.85,46.434],[11.835,46.366],[11.774,46.358],[11.832,46.325],[11.838,46.27],[11.885,46.279],[11.892,46.253],[11.929,46.249],[11.91,46.224],[11.963,46.2],[11.951,46.17],[11.929,46.176],[11.888,46.119],[11.685,46.094],[11.706,46.046],[11.667,46.038],[11.69,45.989],[11.673,45.964],[11.588,45.969],[11.577,46.007],[11.511,46.012],[11.447,45.981],[11.374,45.984],[11.381,45.943],[11.358,45.944],[11.349,45.91],[11.313,45.93],[11.258,45.921],[11.239,45.856],[11.189,45.814],[11.203,45.783],[11.174,45.787],[11.178,45.738],[11.133,45.694],[11.011,45.719],[10.937,45.673],[10.89,45.715],[10.844,45.719],[10.888,45.812],[10.826,45.838],[10.655,45.833],[10.644,45.803],[10.561,45.784],[10.533,45.788],[10.543,45.818],[10.502,45.83],[10.49,45.887],[10.509,45.924],[10.453,45.99],[10.485,46.025],[10.481,46.056],[10.549,46.117],[10.565,46.167],[10.541,46.189],[10.586,46.245],[10.56,46.283],[10.58,46.299],[10.566,46.326],[10.516,46.346],[10.63,46.403],[10.6,46.469],[10.458,46.511],[10.492,46.615],[10.394,46.655],[10.387,46.687],[10.418,46.718],[10.401,46.733],[10.442,46.753],[10.425,46.789],[10.471,46.856],[10.551,46.839],[10.668,46.876],[10.763,46.823],[10.73,46.788],[11.022,46.765],[11.04,46.805],[11.083,46.822],[11.071,46.853],[11.096,46.912],[11.165,46.941],[11.165,46.966],[11.319,46.992],[11.401,46.965],[11.479,47.011],[11.538,46.984],[11.627,47.013],[11.747,46.969],[11.978,47.05],[12.226,47.083],[12.24,47.068],[12.205,47.028],[12.121,47.007],[12.132,46.963],[12.168,46.938],[12.144,46.914],[12.19,46.906],[12.216,46.874],[12.274,46.884],[12.307,46.841],[12.284,46.783],[12.357,46.775],[12.384,46.717],[12.478,46.68],[12.38,46.643],[12.385,46.623],[12.261,46.629],[12.192,46.595],[12.194,46.619],[12.068,46.675],[12.074,46.643],[12.014,46.551]]]}},{"type":"Feature","properties":{"reg_name":"Veneto","reg_istat_code_num":5,"reg_istat_code":"05"},"geometry":{"type":"Polygon","coordinates":[[[10.635,45.535],[10.631,45.61],[10.84,45.833],[10.888,45.812],[10.844,45.719],[10.89,45.715],[10.937,45.673],[11.017,45.719],[11.123,45.689],[11.178,45.738],[11.174,45.787],[11.203,45.783],[11.189,45.814],[11.239,45.856],[11.258,45.921],[11.313,45.93],[11.349,45.91],[11.358,45.944],[11.381,45.943],[11.374,45.984],[11.447,45.981],[11.511,46.012],[11.577,46.007],[11.588,45.969],[11.673,45.964],[11.69,45.989],[11.667,46.038],[11.706,46.046],[11.685,46.094],[11.893,46.121],[11.963,46.2],[11.91,46.224],[11.929,46.249],[11.892,46.253],[11.885,46.279],[11.838,46.27],[11.832,46.325],[11.774,46.358],[11.835,46.366],[11.85,46.434],[11.889,46.443],[11.877,46.472],[11.81,46.485],[11.851,46.518],[11.966,46.545],[11.998,46.533],[12.047,46.585],[12.068,46.675],[12.194,46.619],[12.192,46.595],[12.261,46.629],[12.385,46.623],[12.38,46.643],[12.478,46.68],[12.732,46.634],[12.62,46.544],[12.662,46.468],[12.531,46.465],[12.499,46.412],[12.455,46.392],[12.463,46.369],[12.355,46.32],[12.323,46.273],[12.338,46.239],[12.446,46.208],[12.447,46.18],[12.496,46.153],[12.484,46.104],[12.399,46.041],[12.428,45.996],[12.422,45.956],[12.506,45.923],[12.554,45.829],[12.631,45.83],[12.669,45.791],[12.78,45.854],[12.809,45.82],[12.861,45.851],[12.929,45.817],[12.961,45.847],[12.993,45.815],[12.974,45.807],[13.012,45.763],[13.008,45.725],[13.029,45.736],[13.063,45.657],[13.102,45.642],[12.908,45.614],[12.427,45.418],[12.4,45.43],[12.36,45.396],[12.296,45.244],[12.335,45.164],[12.337,45.09],[12.554,44.965],[12.465,44.844],[12.397,44.791],[12.341,44.85],[12.294,44.86],[12.282,44.941],[12.142,44.928],[12.113,44.96],[12.047,44.977],[11.805,44.977],[11.62,44.888],[11.534,44.936],[11.427,44.93],[11.422,44.964],[11.274,45.018],[11.266,45.056],[11.175,45.06],[11.178,45.097],[11.203,45.112],[11.146,45.126],[11.073,45.099],[11.029,45.123],[11.049,45.151],[10.995,45.15],[10.997,45.187],[10.935,45.214],[10.937,45.233],[10.847,45.257],[10.783,45.315],[10.728,45.291],[10.73,45.316],[10.706,45.316],[10.715,45.334],[10.686,45.354],[10.715,45.368],[10.698,45.38],[10.716,45.417],[10.644,45.418],[10.649,45.441],[10.624,45.444],[10.648,45.449],[10.635,45.535]]]}},{"type":"Feature","properties":{"reg_name":"Friuli-Venezia Giulia","reg_istat_code_num":6,"reg_istat_code":"06"},"geometry":{"type":"MultiPolygon","coordinates":[[[[13.517,46.383],[13.439,46.36],[13.439,46.322],[13.376,46.298],[13.422,46.234],[13.41,46.214],[13.529,46.219],[13.567,46.186],[13.664,46.171],[13.596,46.104],[13.496,46.059],[13.508,46.033],[13.476,46.006],[13.541,45.965],[13.59,45.99],[13.643,45.983],[13.638,45.935],[13.574,45.843],[13.603,45.804],[13.669,45.8],[13.796,45.743],[13.858,45.666],[13.919,45.634],[13.851,45.585],[13.723,45.595],[13.809,45.607],[13.744,45.639],[13.769,45.653],[13.753,45.68],[13.677,45.737],[13.533,45.805],[13.547,45.786],[13.516,45.744],[13.552,45.724],[13.389,45.675],[13.246,45.72],[13.186,45.711],[13.101,45.643],[13.063,45.657],[13.029,45.736],[13.008,45.725],[13.012,45.763],[12.974,45.807],[12.993,45.815],[12.961,45.847],[12.929,45.817],[12.861,45.851],[12.809,45.82],[12.78,45.854],[12.67,45.791],[12.606,45.838],[12.594,45.815],[12.559,45.826],[12.506,45.923],[12.426,45.947],[12.428,45.996],[12.399,46.041],[12.484,46.104],[12.496,46.153],[12.447,46.18],[12.446,46.208],[12.406,46.207],[12.402,46.229],[12.36,46.229],[12.321,46.264],[12.355,46.32],[12.463,46.369],[12.455,46.392],[12.499,46.412],[12.531,46.465],[12.662,46.468],[12.63,46.501],[12.629,46.561],[12.76,46.648],[12.831,46.631],[12.847,46.606],[13.085,46.602],[13.233,46.554],[13.32,46.553],[13.373,46.579],[13.714,46.523],[13.689,46.44],[13.598,46.439],[13.567,46.399],[13.517,46.383]]]]}},{"type":"Feature","properties":{"reg_name":"Liguria","reg_istat_code_num":7,"reg_istat_code":"07"},"geometry":{"type":"MultiPolygon","coordinates":[[[[7.552,43.894],[7.569,43.946],[7.652,43.974],[7.663,44.029],[7.759,44.084],[7.722,44.098],[7.728,44.127],[7.775,44.14],[7.884,44.105],[8.005,44.102],[7.985,44.143],[8.071,44.147],[8.097,44.179],[8.063,44.253],[8.091,44.275],[8.06,44.301],[8.102,44.301],[8.106,44.332],[8.145,44.346],[8.15,44.385],[8.208,44.41],[8.221,44.433],[8.197,44.478],[8.223,44.486],[8.226,44.515],[8.253,44.529],[8.36,44.465],[8.419,44.513],[8.449,44.497],[8.471,44.522],[8.576,44.509],[8.624,44.586],[8.721,44.58],[8.782,44.488],[8.827,44.562],[8.918,44.561],[8.883,44.639],[8.931,44.676],[9.015,44.666],[9.044,44.614],[9.076,44.624],[9.138,44.574],[9.245,44.62],[9.246,44.599],[9.3,44.608],[9.381,44.577],[9.406,44.601],[9.423,44.575],[9.484,44.562],[9.505,44.53],[9.497,44.483],[9.469,44.482],[9.438,44.419],[9.6,44.437],[9.655,44.412],[9.675,44.365],[9.706,44.366],[9.765,44.304],[9.853,44.27],[9.875,44.224],[9.865,44.181],[9.909,44.21],[9.934,44.197],[9.893,44.167],[9.974,44.167],[9.983,44.099],[10.022,44.12],[10.071,44.094],[9.978,44.035],[9.835,44.109],[9.811,44.102],[9.847,44.061],[9.833,44.05],[9.667,44.143],[9.635,44.134],[9.488,44.239],[9.403,44.255],[9.377,44.291],[9.234,44.348],[9.218,44.299],[9.152,44.317],[9.14,44.361],[8.952,44.391],[8.924,44.414],[8.917,44.399],[8.744,44.427],[8.451,44.288],[8.456,44.258],[8.416,44.221],[8.425,44.195],[8.269,44.139],[8.226,44.044],[8.163,43.993],[8.174,43.955],[8.071,43.891],[7.673,43.776],[7.53,43.784],[7.496,43.861],[7.552,43.894]]],[[[9.847,44.033],[9.833,44.047],[9.855,44.051],[9.847,44.033]]]]}},{"type":"Feature","properties":{"reg_name":"Emilia-Romagna","reg_istat_code_num":8,"reg_istat_code":"08"},"geometry":{"type":"MultiPolygon","coordinates":[[[[9.333,44.735],[9.287,44.772],[9.363,44.822],[9.342,44.87],[9.277,44.896],[9.285,44.932],[9.322,44.944],[9.411,45.083],[9.499,45.104],[9.533,45.079],[9.549,45.133],[9.587,45.1],[9.629,45.132],[9.635,45.084],[9.715,45.058],[9.75,45.078],[9.758,45.113],[9.824,45.053],[9.838,45.096],[9.897,45.081],[9.881,45.127],[9.923,45.136],[9.918,45.1],[9.985,45.133],[10.05,45.041],[10.082,45.047],[10.093,45.024],[10.211,45.034],[10.355,44.966],[10.408,44.984],[10.438,44.942],[10.567,44.908],[10.727,44.992],[10.744,44.949],[10.89,44.912],[10.997,44.955],[11.073,44.963],[11.152,44.933],[11.272,44.938],[11.302,44.962],[11.426,44.952],[11.429,44.929],[11.534,44.936],[11.617,44.888],[11.806,44.977],[12.047,44.977],[12.113,44.96],[12.142,44.928],[12.276,44.943],[12.294,44.86],[12.341,44.85],[12.398,44.793],[12.317,44.791],[12.388,44.79],[12.288,44.842],[12.258,44.815],[12.286,44.817],[12.241,44.71],[12.282,44.594],[12.289,44.463],[12.357,44.271],[12.521,44.101],[12.754,43.965],[12.728,43.924],[12.734,43.87],[12.682,43.853],[12.673,43.824],[12.629,43.821],[12.589,43.886],[12.542,43.864],[12.499,43.874],[12.509,43.991],[12.405,43.956],[12.408,43.903],[12.444,43.905],[12.458,43.88],[12.405,43.876],[12.394,43.821],[12.285,43.795],[12.284,43.765],[12.209,43.757],[12.195,43.732],[12.164,43.762],[12.077,43.741],[11.987,43.762],[11.91,43.813],[11.842,43.808],[11.71,43.877],[11.717,43.922],[11.646,43.99],[11.753,44.121],[11.585,44.112],[11.615,44.158],[11.516,44.158],[11.421,44.239],[11.281,44.155],[11.196,44.151],[11.26,44.116],[11.248,44.098],[11.159,44.112],[11.049,44.09],[11.002,44.111],[11.007,44.139],[10.91,44.063],[10.892,44.092],[10.754,44.154],[10.644,44.16],[10.624,44.12],[10.593,44.115],[10.525,44.156],[10.485,44.223],[10.307,44.284],[10.254,44.269],[10.146,44.352],[10.098,44.346],[10.01,44.389],[9.989,44.404],[10.004,44.437],[9.97,44.465],[9.82,44.466],[9.76,44.39],[9.675,44.365],[9.655,44.412],[9.601,44.437],[9.438,44.419],[9.469,44.482],[9.497,44.483],[9.491,44.559],[9.423,44.575],[9.406,44.601],[9.343,44.578],[9.3,44.608],[9.2,44.615],[9.2,44.686],[9.237,44.685],[9.235,44.716],[9.259,44.68],[9.325,44.69],[9.308,44.706],[9.333,44.735]],[[12.177,43.811],[12.186,43.774],[12.237,43.787],[12.23,43.809],[12.177,43.811]]]]}},{"type":"Feature","properties":{"reg_name":"Toscana","reg_istat_code_num":9,"reg_istat_code":"09"},"geometry":{"type":"MultiPolygon","coordinates":[[[[9.898,44.164],[9.934,44.197],[9.897,44.21],[9.865,44.181],[9.875,44.224],[9.853,44.27],[9.687,44.366],[9.76,44.39],[9.82,44.466],[9.971,44.464],[10.004,44.437],[9.989,44.404],[10.01,44.389],[10.098,44.346],[10.146,44.352],[10.254,44.269],[10.307,44.284],[10.485,44.223],[10.525,44.156],[10.593,44.116],[10.624,44.12],[10.641,44.16],[10.744,44.156],[10.892,44.092],[10.905,44.063],[11.007,44.139],[11.002,44.111],[11.049,44.09],[11.159,44.112],[11.248,44.098],[11.26,44.116],[11.196,44.151],[11.281,44.155],[11.421,44.239],[11.516,44.158],[11.615,44.158],[11.585,44.112],[11.753,44.121],[11.646,43.99],[11.717,43.922],[11.71,43.877],[11.732,43.863],[12.071,43.741],[12.164,43.762],[12.195,43.732],[12.209,43.757],[12.284,43.765],[12.371,43.709],[12.33,43.708],[12.336,43.678],[12.316,43.678],[12.308,43.73],[12.297,43.686],[12.186,43.643],[12.214,43.611],[12.153,43.529],[12.091,43.511],[12.143,43.47],[12.025,43.416],[12.077,43.402],[12.077,43.366],[12.125,43.358],[12.133,43.293],[12.177,43.282],[12.194,43.313],[12.224,43.296],[12.092,43.236],[12.034,43.247],[12.024,43.188],[11.925,43.149],[11.924,43.075],[11.982,43.051],[11.933,42.908],[11.959,42.871],[11.815,42.823],[11.807,42.795],[11.776,42.821],[11.753,42.802],[11.746,42.786],[11.819,42.746],[11.781,42.705],[11.809,42.653],[11.75,42.64],[11.736,42.607],[11.643,42.566],[11.579,42.566],[11.561,42.517],[11.616,42.488],[11.618,42.436],[11.489,42.439],[11.45,42.378],[11.242,42.418],[11.21,42.409],[11.19,42.364],[11.153,42.361],[11.098,42.393],[11.09,42.426],[11.105,42.448],[11.174,42.446],[11.192,42.501],[11.178,42.54],[11.122,42.561],[11.085,42.627],[11.01,42.659],[10.952,42.737],[10.734,42.801],[10.773,42.832],[10.773,42.91],[10.645,42.953],[10.561,42.951],[10.544,42.921],[10.495,42.932],[10.483,42.988],[10.516,42.999],[10.537,43.086],[10.528,43.233],[10.425,43.398],[10.33,43.474],[10.296,43.541],[10.32,43.584],[10.297,43.562],[10.239,43.871],[10.137,43.98],[10.019,44.044],[10.071,44.093],[10.058,44.108],[10.018,44.119],[9.993,44.093],[9.974,44.167],[9.898,44.164]]],[[[10.098,42.589],[10.088,42.568],[10.046,42.581],[10.08,42.619],[10.098,42.589]]],[[[10.265,42.745],[10.238,42.748],[10.237,42.726],[10.139,42.733],[10.103,42.786],[10.186,42.812],[10.242,42.787],[10.269,42.803],[10.263,42.83],[10.346,42.797],[10.408,42.871],[10.444,42.847],[10.434,42.776],[10.386,42.759],[10.433,42.735],[10.43,42.712],[10.383,42.715],[10.345,42.764],[10.318,42.76],[10.32,42.736],[10.308,42.759],[10.287,42.736],[10.265,42.745]]],[[[9.835,43.049],[9.842,43.03],[9.801,43.007],[9.8,43.054],[9.826,43.073],[9.835,43.049]]],[[[10.33,42.322],[10.294,42.317],[10.293,42.344],[10.314,42.351],[10.33,42.322]]],[[[12.199,43.77],[12.171,43.808],[12.233,43.807],[12.237,43.787],[12.199,43.77]]],[[[11.115,42.259],[11.11,42.238],[11.091,42.253],[11.115,42.259]]],[[[10.887,42.39],[10.925,42.355],[10.921,42.32],[10.867,42.354],[10.887,42.39]]]]}},{"type":"Feature","properties":{"reg_name":"Umbria","reg_istat_code_num":10,"reg_istat_code":"10"},"geometry":{"type":"MultiPolygon","coordinates":[[[[13.158,42.654],[13.118,42.658],[13.063,42.623],[13.024,42.639],[13.004,42.615],[12.881,42.609],[12.893,42.563],[12.711,42.501],[12.742,42.471],[12.675,42.442],[12.621,42.468],[12.606,42.404],[12.526,42.364],[12.511,42.404],[12.451,42.396],[12.464,42.429],[12.414,42.426],[12.421,42.493],[12.351,42.474],[12.291,42.492],[12.307,42.497],[12.275,42.509],[12.29,42.519],[12.267,42.533],[12.275,42.56],[12.239,42.572],[12.243,42.629],[12.204,42.66],[12.161,42.677],[12.124,42.649],[12.107,42.665],[12.03,42.643],[11.941,42.683],[11.93,42.713],[11.979,42.765],[11.927,42.781],[11.892,42.843],[11.959,42.871],[11.933,42.908],[11.982,43.051],[11.957,43.069],[11.936,43.056],[11.912,43.128],[12.024,43.188],[12.034,43.247],[12.092,43.236],[12.224,43.296],[12.194,43.313],[12.177,43.282],[12.133,43.293],[12.121,43.362],[12.075,43.367],[12.072,43.405],[12.031,43.401],[12.032,43.424],[12.143,43.47],[12.092,43.501],[12.096,43.523],[12.153,43.529],[12.214,43.611],[12.3,43.586],[12.356,43.617],[12.373,43.584],[12.313,43.544],[12.333,43.524],[12.367,43.534],[12.395,43.509],[12.437,43.539],[12.459,43.516],[12.5,43.521],[12.619,43.417],[12.663,43.437],[12.709,43.425],[12.736,43.464],[12.771,43.457],[12.78,43.414],[12.749,43.379],[12.799,43.325],[12.789,43.283],[12.865,43.206],[12.862,43.166],[12.83,43.146],[12.897,43.093],[12.896,42.965],[12.977,42.926],[12.976,42.87],[13.001,42.908],[13.054,42.92],[13.161,42.832],[13.235,42.868],[13.248,42.85],[13.264,42.809],[13.246,42.768],[13.194,42.758],[13.158,42.654]]]]}},{"type":"Feature","properties":{"reg_name":"Marche","reg_istat_code_num":11,"reg_istat_code":"11"},"geometry":{"type":"Polygon","coordinates":[[[12.501,43.52],[12.437,43.539],[12.395,43.509],[12.367,43.534],[12.333,43.524],[12.313,43.545],[12.37,43.579],[12.371,43.611],[12.259,43.589],[12.188,43.634],[12.245,43.681],[12.297,43.686],[12.308,43.73],[12.316,43.678],[12.336,43.678],[12.33,43.708],[12.371,43.709],[12.283,43.763],[12.285,43.795],[12.388,43.817],[12.404,43.876],[12.446,43.871],[12.478,43.897],[12.542,43.864],[12.589,43.886],[12.623,43.821],[12.673,43.824],[12.682,43.853],[12.734,43.87],[12.751,43.969],[12.907,43.923],[13.286,43.679],[13.454,43.611],[13.507,43.631],[13.626,43.55],[13.623,43.502],[13.814,43.169],[13.917,42.895],[13.722,42.855],[13.664,42.807],[13.534,42.817],[13.493,42.737],[13.448,42.732],[13.438,42.699],[13.393,42.687],[13.286,42.74],[13.254,42.721],[13.188,42.734],[13.217,42.772],[13.241,42.763],[13.264,42.808],[13.236,42.867],[13.161,42.832],[13.054,42.92],[13.001,42.908],[12.976,42.87],[12.977,42.926],[12.896,42.965],[12.897,43.093],[12.83,43.146],[12.862,43.166],[12.865,43.206],[12.789,43.283],[12.799,43.325],[12.749,43.379],[12.78,43.414],[12.773,43.455],[12.736,43.464],[12.709,43.425],[12.663,43.437],[12.619,43.417],[12.501,43.52]]]}},{"type":"Feature","properties":{"reg_name":"Lazio","reg_istat_code_num":12,"reg_istat_code":"12"},"geometry":{"type":"MultiPolygon","coordinates":[[[[11.811,42.807],[11.851,42.839],[11.902,42.832],[11.927,42.781],[11.982,42.755],[11.926,42.704],[12.03,42.643],[12.107,42.665],[12.124,42.649],[12.161,42.677],[12.204,42.66],[12.243,42.629],[12.239,42.572],[12.275,42.56],[12.267,42.533],[12.29,42.519],[12.275,42.509],[12.307,42.497],[12.291,42.492],[12.351,42.474],[12.421,42.493],[12.414,42.426],[12.464,42.429],[12.451,42.396],[12.511,42.404],[12.526,42.364],[12.606,42.404],[12.621,42.468],[12.675,42.442],[12.742,42.471],[12.711,42.501],[12.893,42.563],[12.89,42.614],[12.93,42.603],[13.011,42.617],[13.024,42.639],[13.059,42.623],[13.118,42.658],[13.146,42.646],[13.174,42.666],[13.189,42.734],[13.319,42.723],[13.358,42.694],[13.37,42.649],[13.408,42.643],[13.394,42.591],[13.293,42.57],[13.191,42.588],[13.156,42.54],[13.178,42.479],[13.116,42.444],[13.194,42.389],[13.153,42.357],[13.226,42.319],[13.235,42.278],[13.281,42.238],[13.38,42.18],[13.249,42.127],[13.087,42.178],[13.085,42.142],[13.031,42.122],[13.027,42.05],[13.065,42.012],[13.101,42.008],[13.105,42.026],[13.364,41.925],[13.384,41.904],[13.36,41.869],[13.38,41.817],[13.417,41.835],[13.572,41.754],[13.663,41.811],[13.706,41.787],[13.73,41.799],[13.766,41.749],[13.919,41.718],[13.988,41.654],[14.011,41.608],[13.999,41.574],[14.026,41.555],[14.005,41.539],[14.028,41.524],[13.973,41.494],[13.993,41.482],[13.978,41.462],[13.861,41.418],[13.886,41.384],[13.871,41.357],[13.89,41.297],[13.828,41.281],[13.834,41.252],[13.762,41.223],[13.707,41.254],[13.621,41.261],[13.574,41.24],[13.591,41.209],[13.576,41.204],[13.292,41.298],[13.164,41.272],[13.068,41.222],[13.04,41.231],[12.98,41.336],[12.903,41.391],[12.765,41.41],[12.669,41.456],[12.622,41.445],[12.437,41.641],[12.225,41.745],[12.204,41.83],[12.141,41.916],[11.916,42.039],[11.833,42.031],[11.664,42.269],[11.451,42.377],[11.489,42.439],[11.618,42.436],[11.616,42.488],[11.561,42.517],[11.581,42.568],[11.643,42.566],[11.736,42.607],[11.75,42.64],[11.805,42.644],[11.781,42.705],[11.819,42.746],[11.746,42.786],[11.769,42.82],[11.811,42.807]]],[[[12.967,40.921],[12.953,40.88],[12.949,40.917],[12.995,40.934],[12.967,40.921]]]]}},{"type":"Feature","properties":{"reg_name":"Abruzzo","reg_istat_code_num":13,"reg_istat_code":"13"},"geometry":{"type":"MultiPolygon","coordinates":[[[[13.941,41.688],[13.892,41.735],[13.766,41.749],[13.73,41.799],[13.648,41.811],[13.572,41.754],[13.417,41.835],[13.38,41.817],[13.36,41.869],[13.384,41.904],[13.365,41.924],[13.105,42.026],[13.101,42.008],[13.065,42.012],[13.018,42.075],[13.031,42.122],[13.085,42.142],[13.087,42.178],[13.249,42.127],[13.38,42.18],[13.281,42.238],[13.235,42.278],[13.226,42.319],[13.153,42.357],[13.194,42.389],[13.116,42.444],[13.178,42.479],[13.156,42.54],[13.191,42.588],[13.382,42.581],[13.41,42.639],[13.35,42.669],[13.359,42.696],[13.437,42.699],[13.448,42.732],[13.493,42.737],[13.534,42.817],[13.664,42.807],[13.707,42.849],[13.88,42.895],[13.92,42.892],[13.996,42.708],[14.124,42.549],[14.26,42.441],[14.391,42.373],[14.51,42.252],[14.712,42.178],[14.718,42.106],[14.78,42.07],[14.761,42.042],[14.783,42.034],[14.724,42.0],[14.568,41.818],[14.49,41.761],[14.455,41.763],[14.442,41.841],[14.377,41.88],[14.343,41.863],[14.284,41.911],[14.147,41.827],[14.202,41.767],[14.194,41.748],[14.172,41.766],[14.122,41.746],[14.107,41.707],[14.094,41.738],[14.07,41.737],[14.019,41.682],[13.941,41.688]]]]}},{"type":"Feature","properties":{"reg_name":"Molise","reg_istat_code_num":14,"reg_istat_code":"14"},"geometry":{"type":"Polygon","coordinates":[[[14.419,41.435],[14.241,41.497],[14.174,41.501],[14.165,41.479],[14.123,41.507],[14.078,41.447],[14.114,41.389],[14.042,41.393],[13.973,41.493],[14.028,41.523],[14.005,41.539],[14.026,41.555],[13.999,41.575],[14.011,41.608],[13.941,41.688],[14.019,41.682],[14.07,41.737],[14.094,41.738],[14.107,41.707],[14.122,41.746],[14.172,41.766],[14.194,41.748],[14.202,41.767],[14.147,41.827],[14.284,41.911],[14.343,41.863],[14.377,41.88],[14.442,41.841],[14.455,41.763],[14.49,41.761],[14.568,41.818],[14.724,42.0],[14.78,42.03],[14.761,42.042],[14.78,42.07],[14.994,42.005],[15.138,41.927],[15.097,41.767],[15.121,41.72],[15.161,41.709],[15.05,41.657],[15.025,41.622],[14.96,41.646],[14.934,41.62],[14.95,41.593],[14.937,41.527],[15.008,41.486],[14.857,41.425],[14.785,41.452],[14.765,41.417],[14.686,41.411],[14.603,41.364],[14.566,41.392],[14.505,41.382],[14.477,41.419],[14.419,41.435]]]}},{"type":"Feature","properties":{"reg_name":"Campania","reg_istat_code_num":15,"reg_istat_code":"15"},"geometry":{"type":"MultiPolygon","coordinates":[[[[14.125,41.507],[14.165,41.479],[14.174,41.501],[14.279,41.486],[14.327,41.453],[14.477,41.419],[14.505,41.382],[14.566,41.392],[14.603,41.364],[14.686,41.411],[14.765,41.417],[14.785,41.452],[14.857,41.425],[15.008,41.486],[15.047,41.443],[15.101,41.43],[15.098,41.391],[15.058,41.372],[15.072,41.332],[15.131,41.317],[15.149,41.28],[15.201,41.286],[15.276,41.25],[15.246,41.235],[15.262,41.198],[15.209,41.168],[15.264,41.105],[15.367,41.085],[15.401,41.106],[15.547,41.053],[15.572,40.997],[15.527,40.908],[15.468,40.89],[15.461,40.867],[15.354,40.883],[15.378,40.836],[15.335,40.835],[15.388,40.795],[15.381,40.724],[15.504,40.664],[15.449,40.609],[15.539,40.568],[15.539,40.488],[15.71,40.377],[15.727,40.315],[15.806,40.273],[15.796,40.222],[15.731,40.199],[15.701,40.161],[15.706,40.118],[15.652,40.079],[15.676,40.055],[15.645,40.043],[15.625,40.074],[15.531,40.074],[15.419,39.991],[15.315,40.032],[15.271,40.023],[15.271,40.074],[15.132,40.171],[15.04,40.171],[14.991,40.219],[14.909,40.243],[14.943,40.276],[14.945,40.336],[14.997,40.357],[14.999,40.39],[14.893,40.567],[14.796,40.661],[14.748,40.678],[14.692,40.634],[14.625,40.648],[14.572,40.611],[14.486,40.628],[14.325,40.569],[14.339,40.628],[14.4,40.638],[14.479,40.696],[14.456,40.748],[14.396,40.759],[14.274,40.845],[14.187,40.792],[14.105,40.832],[14.072,40.819],[14.089,40.778],[14.042,40.791],[14.045,40.862],[14.017,40.927],[13.836,41.163],[13.762,41.223],[13.834,41.252],[13.828,41.281],[13.89,41.297],[13.871,41.357],[13.886,41.384],[13.862,41.418],[13.966,41.464],[14.007,41.452],[14.001,41.431],[14.042,41.393],[14.111,41.386],[14.078,41.447],[14.125,41.507]]],[[[14.231,40.542],[14.198,40.537],[14.198,40.559],[14.266,40.557],[14.231,40.542]]],[[[13.954,40.707],[13.862,40.703],[13.862,40.757],[13.954,40.742],[13.954,40.707]]],[[[14.017,40.77],[14.018,40.739],[13.99,40.743],[14.017,40.77]]]]}},{"type":"Feature","properties":{"reg_name":"Puglia","reg_istat_code_num":16,"reg_istat_code":"16"},"geometry":{"type":"MultiPolygon","coordinates":[[[[15.098,41.391],[15.099,41.434],[15.047,41.443],[14.939,41.525],[14.934,41.62],[14.96,41.646],[15.025,41.622],[15.05,41.657],[15.161,41.709],[15.121,41.72],[15.097,41.767],[15.138,41.927],[15.406,41.901],[16.084,41.941],[16.176,41.885],[16.196,41.792],[16.035,41.677],[15.903,41.618],[15.902,41.54],[15.957,41.462],[16.582,41.208],[17.057,41.077],[17.279,40.972],[17.478,40.83],[17.707,40.758],[17.839,40.691],[17.984,40.664],[17.927,40.64],[17.999,40.649],[18.081,40.525],[18.234,40.448],[18.423,40.294],[18.52,40.107],[18.408,39.978],[18.391,39.818],[18.369,39.794],[18.205,39.839],[18.086,39.901],[18.007,39.978],[17.993,40.0],[18.015,40.003],[18.017,40.032],[17.972,40.055],[18.005,40.072],[18.01,40.109],[17.928,40.181],[17.907,40.253],[17.861,40.284],[17.678,40.305],[17.508,40.295],[17.203,40.408],[17.255,40.441],[17.247,40.462],[17.113,40.52],[16.995,40.495],[16.851,40.401],[16.803,40.457],[16.72,40.48],[16.737,40.508],[16.705,40.555],[16.728,40.601],[16.71,40.633],[16.727,40.688],[16.696,40.703],[16.725,40.714],[16.663,40.749],[16.576,40.764],[16.572,40.737],[16.536,40.752],[16.539,40.725],[16.501,40.762],[16.431,40.705],[16.4,40.707],[16.256,40.823],[16.202,40.918],[16.163,40.929],[16.121,40.898],[15.977,40.958],[16.027,40.991],[16.041,41.036],[15.953,41.111],[15.87,41.14],[15.791,41.088],[15.586,41.098],[15.542,41.056],[15.396,41.107],[15.367,41.085],[15.292,41.094],[15.209,41.155],[15.262,41.198],[15.246,41.235],[15.276,41.25],[15.201,41.286],[15.149,41.28],[15.131,41.317],[15.072,41.332],[15.058,41.372],[15.098,41.391]]]]}},{"type":"Feature","properties":{"reg_name":"Basilicata","reg_istat_code_num":17,"reg_istat_code":"17"},"geometry":{"type":"MultiPolygon","coordinates":[[[[15.466,40.634],[15.504,40.664],[15.381,40.724],[15.388,40.795],[15.335,40.835],[15.378,40.836],[15.354,40.883],[15.461,40.867],[15.468,40.89],[15.527,40.908],[15.569,40.98],[15.539,41.07],[15.56,41.088],[15.738,41.1],[15.768,41.083],[15.87,41.14],[15.953,41.111],[16.041,41.036],[16.027,40.991],[15.977,40.958],[16.121,40.898],[16.163,40.929],[16.202,40.918],[16.256,40.823],[16.4,40.707],[16.431,40.705],[16.501,40.762],[16.539,40.725],[16.536,40.752],[16.572,40.737],[16.58,40.764],[16.725,40.714],[16.696,40.703],[16.727,40.688],[16.71,40.633],[16.728,40.601],[16.705,40.555],[16.737,40.508],[16.72,40.48],[16.803,40.457],[16.867,40.397],[16.692,40.152],[16.645,40.118],[16.421,40.144],[16.398,40.017],[16.338,39.936],[16.351,39.899],[16.269,39.936],[16.214,39.927],[16.215,39.896],[16.159,39.919],[16.049,39.895],[16.007,39.957],[16.031,39.993],[15.928,40.001],[15.898,39.982],[15.85,40.006],[15.82,40.002],[15.756,39.924],[15.644,40.042],[15.676,40.055],[15.652,40.079],[15.706,40.118],[15.713,40.178],[15.795,40.221],[15.806,40.273],[15.727,40.315],[15.71,40.377],[15.539,40.488],[15.539,40.568],[15.449,40.609],[15.466,40.634]]]]}},{"type":"Feature","properties":{"reg_name":"Calabria","reg_istat_code_num":18,"reg_istat_code":"18"},"geometry":{"type":"MultiPolygon","coordinates":[[[[15.974,39.467],[15.876,39.552],[15.817,39.677],[15.769,39.836],[15.792,39.86],[15.756,39.924],[15.774,39.961],[15.82,40.002],[15.898,39.982],[15.928,40.001],[15.979,39.982],[16.023,39.996],[16.007,39.957],[16.049,39.895],[16.159,39.919],[16.215,39.896],[16.214,39.927],[16.269,39.936],[16.31,39.934],[16.351,39.899],[16.36,39.92],[16.338,39.936],[16.398,40.017],[16.421,40.144],[16.53,40.118],[16.627,40.13],[16.645,40.118],[16.599,40.041],[16.627,39.957],[16.489,39.798],[16.493,39.749],[16.529,39.724],[16.518,39.668],[16.619,39.622],[16.77,39.621],[16.867,39.539],[17.024,39.484],[17.052,39.439],[17.157,39.401],[17.109,39.308],[17.106,39.253],[17.148,39.206],[17.108,39.107],[17.147,39.046],[17.206,39.026],[17.164,38.995],[17.17,38.957],[17.094,38.893],[17.083,38.913],[17.022,38.906],[16.954,38.938],[16.795,38.903],[16.614,38.819],[16.535,38.712],[16.559,38.681],[16.58,38.497],[16.565,38.42],[16.467,38.34],[16.335,38.3],[16.289,38.26],[16.164,38.134],[16.144,38.031],[16.064,37.926],[15.764,37.916],[15.678,37.954],[15.636,38.008],[15.657,38.04],[15.63,38.093],[15.655,38.134],[15.633,38.223],[15.809,38.293],[15.907,38.468],[15.93,38.547],[15.828,38.618],[15.836,38.645],[15.986,38.723],[16.137,38.719],[16.188,38.756],[16.22,38.836],[16.217,38.924],[16.156,38.951],[16.098,39.032],[16.051,39.299],[15.974,39.467]]]]}},{"type":"Feature","properties":{"reg_name":"Sicilia","reg_istat_code_num":19,"reg_istat_code":"19"},"geometry":{"type":"MultiPolygon","coordinates":[[[[12.908,38.025],[13.078,38.088],[13.052,38.139],[13.106,38.191],[13.191,38.169],[13.316,38.225],[13.366,38.182],[13.363,38.13],[13.384,38.109],[13.443,38.095],[13.538,38.113],[13.536,38.067],[13.566,38.039],[13.745,37.97],[14.036,38.041],[14.065,38.019],[14.146,38.03],[14.288,38.007],[14.521,38.041],[14.636,38.073],[14.748,38.165],[14.787,38.151],[14.916,38.192],[14.97,38.152],[15.045,38.152],[15.096,38.121],[15.212,38.186],[15.241,38.242],[15.231,38.272],[15.253,38.247],[15.241,38.217],[15.293,38.206],[15.541,38.301],[15.653,38.267],[15.582,38.245],[15.558,38.19],[15.576,38.194],[15.494,38.075],[15.214,37.756],[15.177,37.576],[15.115,37.531],[15.1,37.484],[15.09,37.5],[15.099,37.318],[15.187,37.279],[15.207,37.293],[15.258,37.244],[15.226,37.241],[15.224,37.216],[15.214,37.247],[15.185,37.237],[15.186,37.191],[15.206,37.153],[15.245,37.146],[15.22,37.143],[15.237,37.115],[15.296,37.107],[15.299,37.059],[15.275,37.062],[15.276,37.039],[15.312,37.039],[15.337,37.008],[15.275,37.007],[15.263,36.975],[15.209,36.964],[15.153,36.914],[15.094,36.799],[15.14,36.685],[15.079,36.647],[15.018,36.702],[14.957,36.694],[14.877,36.731],[14.781,36.704],[14.69,36.721],[14.588,36.777],[14.494,36.787],[14.376,36.964],[14.243,37.066],[14.079,37.11],[13.879,37.102],[13.825,37.144],[13.751,37.149],[13.663,37.193],[13.556,37.285],[13.448,37.296],[13.322,37.364],[13.169,37.492],[13.02,37.496],[12.964,37.562],[12.918,37.577],[12.673,37.56],[12.606,37.641],[12.518,37.661],[12.472,37.703],[12.47,37.747],[12.425,37.803],[12.462,37.817],[12.486,37.874],[12.459,37.908],[12.52,38.011],[12.492,38.017],[12.569,38.069],[12.646,38.078],[12.66,38.112],[12.711,38.11],[12.738,38.14],[12.716,38.176],[12.732,38.19],[12.768,38.18],[12.811,38.081],[12.908,38.025]]],[[[12.308,37.952],[12.366,37.906],[12.282,37.919],[12.278,37.945],[12.308,37.952]]],[[[12.064,37.99],[12.092,37.947],[12.044,37.959],[12.028,37.992],[12.064,37.99]]],[[[12.334,38.021],[12.351,37.988],[12.323,37.995],[12.334,38.021]]],[[[12.45,37.896],[12.447,37.844],[12.429,37.892],[12.45,37.896]]],[[[11.955,36.839],[12.049,36.8],[12.049,36.75],[11.993,36.737],[11.957,36.768],[11.926,36.807],[11.955,36.839]]],[[[13.18,38.721],[13.2,38.71],[13.153,38.694],[13.18,38.721]]],[[[14.847,38.538],[14.796,38.561],[14.807,38.583],[14.867,38.583],[14.871,38.537],[14.847,38.538]]],[[[14.964,38.412],[15.003,38.371],[14.949,38.385],[14.94,38.411],[14.96,38.432],[14.964,38.412]]],[[[14.962,38.521],[14.981,38.483],[14.955,38.474],[14.953,38.439],[14.898,38.486],[14.912,38.518],[14.962,38.521]]],[[[14.352,38.531],[14.34,38.548],[14.363,38.554],[14.352,38.531]]],[[[14.587,38.559],[14.54,38.578],[14.576,38.581],[14.587,38.559]]],[[[15.215,38.771],[15.189,38.796],[15.242,38.805],[15.215,38.771]]],[[[12.531,35.529],[12.628,35.52],[12.633,35.494],[12.518,35.52],[12.531,35.529]]],[[[12.877,35.875],[12.881,35.855],[12.848,35.868],[12.877,35.875]]]]}},{"type":"Feature","properties":{"reg_name":"Sardegna","reg_istat_code_num":20,"reg_istat_code":"20"},"geometry":{"type":"MultiPolygon","coordinates":[[[[8.368,40.496],[8.339,40.509],[8.295,40.593],[8.198,40.571],[8.22,40.601],[8.195,40.618],[8.164,40.56],[8.151,40.579],[8.145,40.624],[8.187,40.639],[8.205,40.683],[8.134,40.731],[8.224,40.886],[8.176,40.935],[8.201,40.971],[8.238,40.953],[8.233,40.911],[8.302,40.851],[8.496,40.821],[8.591,40.843],[8.699,40.915],[8.79,40.922],[8.873,40.995],[8.88,41.029],[8.929,41.044],[9.013,41.125],[9.152,41.155],[9.167,41.229],[9.144,41.247],[9.235,41.259],[9.281,41.228],[9.277,41.193],[9.287,41.219],[9.289,41.193],[9.32,41.203],[9.332,41.185],[9.363,41.208],[9.37,41.183],[9.423,41.177],[9.405,41.158],[9.432,41.152],[9.442,41.102],[9.467,41.144],[9.519,41.157],[9.54,41.114],[9.567,41.116],[9.506,41.009],[9.561,41.038],[9.555,41.004],[9.595,41.023],[9.665,40.995],[9.611,41.003],[9.583,40.983],[9.575,40.928],[9.524,40.934],[9.504,40.913],[9.563,40.919],[9.589,40.9],[9.644,40.92],[9.616,40.89],[9.665,40.853],[9.728,40.844],[9.686,40.835],[9.671,40.785],[9.715,40.753],[9.715,40.709],[9.75,40.68],[9.752,40.601],[9.828,40.528],[9.764,40.391],[9.684,40.339],[9.624,40.253],[9.634,40.18],[9.736,40.077],[9.687,39.984],[9.687,39.948],[9.716,39.928],[9.682,39.9],[9.697,39.853],[9.647,39.652],[9.646,39.461],[9.598,39.353],[9.633,39.296],[9.582,39.264],[9.563,39.196],[9.579,39.176],[9.521,39.118],[9.524,39.095],[9.503,39.131],[9.438,39.122],[9.297,39.213],[9.21,39.227],[9.159,39.181],[9.096,39.214],[9.009,39.121],[9.046,39.056],[9.024,39.004],[8.855,38.879],[8.722,38.938],[8.664,38.913],[8.64,38.865],[8.646,38.894],[8.607,38.893],[8.624,38.938],[8.585,38.958],[8.571,39.038],[8.512,39.062],[8.466,39.057],[8.445,38.97],[8.403,38.962],[8.351,39.098],[8.426,39.109],[8.465,39.058],[8.488,39.085],[8.368,39.216],[8.437,39.292],[8.373,39.374],[8.413,39.427],[8.386,39.471],[8.471,39.599],[8.444,39.758],[8.46,39.768],[8.502,39.713],[8.57,39.864],[8.492,39.91],[8.436,39.858],[8.435,39.884],[8.399,39.904],[8.391,39.976],[8.414,40.017],[8.376,40.036],[8.454,40.051],[8.493,40.087],[8.456,40.177],[8.484,40.274],[8.459,40.319],[8.384,40.344],[8.402,40.409],[8.368,40.496]]],[[[9.41,41.186],[9.398,41.198],[9.42,41.208],[9.41,41.186]]],[[[9.471,41.246],[9.489,41.22],[9.464,41.184],[9.482,41.183],[9.437,41.181],[9.471,41.246]]],[[[9.344,41.251],[9.361,41.242],[9.346,41.229],[9.344,41.251]]],[[[9.431,41.259],[9.438,41.214],[9.381,41.21],[9.378,41.235],[9.414,41.268],[9.431,41.259]]],[[[9.731,40.875],[9.736,40.859],[9.71,40.869],[9.731,40.875]]],[[[8.325,41.106],[8.35,41.088],[8.332,41.05],[8.257,41.051],[8.235,41.024],[8.264,41.003],[8.256,40.985],[8.21,40.988],[8.22,41.041],[8.285,41.077],[8.275,41.104],[8.318,41.121],[8.325,41.106]]],[[[8.308,39.18],[8.31,39.113],[8.29,39.096],[8.22,39.148],[8.308,39.18]]]]}}]}